SAUDISAT 1C             
1 27607U 02058C   23109.53882002  .00002460  00000+0  35165-3 0  9994
2 27607  64.5545  84.7084 0073914 236.4461 122.9569 14.77124378 93565
SAUDISAT 2              
1 28371U 04025F   23109.37815981  .00000880  00000+0  21533-3 0  9991
2 28371  98.4237  72.5273 0024276 243.5943 116.2756 14.54877161997763
SAUDISAT 3              
1 31118U 07012B   23109.39034517  .00000846  00000+0  15024-3 0  9993
2 31118  98.0087  54.7293 0013898 305.3701  54.6206 14.69633510858031
PISAT                   
1 41784U 16059B   23109.03180566  .00001892  00000+0  36301-3 0  9994
2 41784  97.8761 144.9083 0029902 283.0067  76.7798 14.64555601350404
FLYING LAPTOP           
1 42831U 17042G   23109.57956345  .00003209  00000+0  31399-3 0  9992
2 42831  97.3958 310.8537 0014935  66.9018 293.3792 14.92887572313746
SALSAT                  
1 46495U 20068K   23109.37634657  .00007388  00000+0  49434-3 0  9992
2 46495  97.7662  56.8001 0014460 326.7807  33.2511 15.07157593140211
